{
  "norad_id": 63746,
  "name": "KUIPER-00033",
  "history": [
    {
      "epoch": "2026-03-28T21:47:14.732160Z",
      "apogee_km": 630.0908104777718,
      "perigee_km": 628.8777912305941,
      "latitude_deg": 2.0168894136857556e-05,
      "longitude_deg": -112.54158197838213,
      "height_km": 630.3086109902177,
      "semi_major_axis_km": 7007.621300854183,
      "eccentricity": 8.655e-05,
      "inclination_deg": 51.9052,
      "raan_deg": 40.5913,
      "arg_perigee_deg": 97.3983,
      "mean_anomaly_deg": 262.7078,
      "mean_motion_rev_day": 14.7994926
    },
    {
      "epoch": "2026-03-29T01:01:43.817664Z",
      "apogee_km": 630.2597550153896,
      "perigee_km": 628.6774376717349,
      "latitude_deg": -5.677147864963621e-05,
      "longitude_deg": -161.89395167347226,
      "height_km": 630.209863573012,
      "semi_major_axis_km": 7007.605596343562,
      "eccentricity": 0.0001129,
      "inclination_deg": 51.903,
      "raan_deg": 39.9933,
      "arg_perigee_deg": 89.6835,
      "mean_anomaly_deg": 270.4256,
      "mean_motion_rev_day": 14.79954235
    },
    {
      "epoch": "2026-03-30T02:57:37.229184Z",
      "apogee_km": 630.3955339849017,
      "perigee_km": 628.6786538318938,
      "latitude_deg": -5.3167561797219227e-05,
      "longitude_deg": 163.29313476956014,
      "height_km": 630.4610390474214,
      "semi_major_axis_km": 7007.6740939083975,
      "eccentricity": 0.0001225,
      "inclination_deg": 51.9019,
      "raan_deg": 35.2179,
      "arg_perigee_deg": 102.0035,
      "mean_anomaly_deg": 258.1064,
      "mean_motion_rev_day": 14.79932536
    },
    {
      "epoch": "2026-03-30T12:41:04.724160Z",
      "apogee_km": 630.413580995546,
      "perigee_km": 628.6536745940812,
      "latitude_deg": -1.612541646086441e-05,
      "longitude_deg": 15.237138741893107,
      "height_km": 630.459292196297,
      "semi_major_axis_km": 7007.670627794813,
      "eccentricity": 0.00012557,
      "inclination_deg": 51.9017,
      "raan_deg": 33.4258,
      "arg_perigee_deg": 101.8247,
      "mean_anomaly_deg": 258.2856,
      "mean_motion_rev_day": 14.79933634
    },
    {
      "epoch": "2026-03-30T20:47:17.562336Z",
      "apogee_km": 630.3688774997254,
      "perigee_km": 628.6800310892404,
      "latitude_deg": -6.902361432142304e-05,
      "longitude_deg": -108.14189615352986,
      "height_km": 630.485903971127,
      "semi_major_axis_km": 7007.661454294483,
      "eccentricity": 0.0001205,
      "inclination_deg": 51.9022,
      "raan_deg": 31.9331,
      "arg_perigee_deg": 104.8177,
      "mean_anomaly_deg": 255.2918,
      "mean_motion_rev_day": 14.7993654
    },
    {
      "epoch": "2026-03-31T12:59:43.275840Z",
      "apogee_km": 630.3601664536709,
      "perigee_km": 628.6643153373734,
      "latitude_deg": 1.2949501669418664e-05,
      "longitude_deg": 5.0981253860193965,
      "height_km": 630.4645280108442,
      "semi_major_axis_km": 7007.649240895522,
      "eccentricity": 0.000121,
      "inclination_deg": 51.9015,
      "raan_deg": 28.9458,
      "arg_perigee_deg": 104.1225,
      "mean_anomaly_deg": 255.9872,
      "mean_motion_rev_day": 14.79940409
    },
    {
      "epoch": "2026-04-01T05:12:09.414432Z",
      "apogee_km": 630.3894454134679,
      "perigee_km": 628.7286214535443,
      "latitude_deg": 4.016395332074716e-05,
      "longitude_deg": 118.3382281710352,
      "height_km": 630.5208316001557,
      "semi_major_axis_km": 7007.696033433506,
      "eccentricity": 0.0001185,
      "inclination_deg": 51.9029,
      "raan_deg": 25.9604,
      "arg_perigee_deg": 105.0926,
      "mean_anomaly_deg": 255.0168,
      "mean_motion_rev_day": 14.79925586
    },
    {
      "epoch": "2026-04-02T18:28:44.696064Z",
      "apogee_km": 630.1959141549532,
      "perigee_km": 628.8476406061845,
      "latitude_deg": 6.609532304162382e-06,
      "longitude_deg": -89.20779339718935,
      "height_km": 630.4411311687686,
      "semi_major_axis_km": 7007.658777380569,
      "eccentricity": 9.62e-05,
      "inclination_deg": 51.9036,
      "raan_deg": 19.0923,
      "arg_perigee_deg": 104.9059,
      "mean_anomaly_deg": 255.201,
      "mean_motion_rev_day": 14.79937388
    }
  ]
}